IRIDIUM 63              
1 25286U 98021B   25075.60422053  .00000830  00000+0  27687-3 0  9997
2 25286  86.3961 120.9858 0002214  96.7159 263.4289 14.36422994410820
IRIDIUM 69              
1 25319U 98026A   25075.62239850  .00001116  00000+0  34264-3 0  9999
2 25319  86.3987 134.5425 0002130  32.0654 328.0674 14.40820894409736
IRIDIUM 71              
1 25320U 98026B   25075.85015264  .00000965  00000+0  29422-3 0  9998
2 25320  86.3972 129.1557 0003809  63.9177 296.2414 14.41028456410549
IRIDIUM 73              
1 25344U 98032C   25075.55519419  .00001538  00000+0  38001-3 0  9999
2 25344  86.4351  86.1672 0001927  76.3456 283.7964 14.51503857417120
IRIDIUM 82              
1 25467U 98051A   25075.45918461  .00031067  00000+0  10487-2 0  9992
2 25467  86.3740 155.1288 0093340 287.2360  71.8687 15.26363804409784
